STARLINK-1955
1 17556C 21009J   21326.12602280  .00001456  00000-0  97539-4 0  3261
2 17556  53.0544 243.1652 0002059  72.6438 255.9525 15.06407764    13
